[{"OBJECT_NAME":"STARLINK-31474","OBJECT_ID":"2024-056J","EPOCH":"2026-03-09T10:19:57.436896","MEAN_MOTION":15.27574581,"ECCENTRICITY":0.00017282,"INCLINATION":43.0036,"RA_OF_ASC_NODE":225.3421,"ARG_OF_PERICENTER":280.3945,"MEAN_ANOMALY":79.6712,"EPHEMERIS_TYPE":0,"CLASSIFICATION_TYPE":"U","NORAD_CAT_ID":59304,"ELEMENT_SET_NO":999,"REV_AT_EPOCH":11119,"BSTAR":9.171097e-5,"MEAN_MOTION_DOT":2.262e-5,"MEAN_MOTION_DDOT":0},{"OBJECT_NAME":"TEVEL2-5","OBJECT_ID":"2025-052E","EPOCH":"2026-03-09T23:11:54.246048","MEAN_MOTION":15.30817434,"ECCENTRICITY":0.00047002,"INCLINATION":97.4013,"RA_OF_ASC_NODE":325.3677,"ARG_OF_PERICENTER":95.3936,"MEAN_ANOMALY":264.7842,"EPHEMERIS_TYPE":0,"CLASSIFICATION_TYPE":"U","NORAD_CAT_ID":63214,"ELEMENT_SET_NO":999,"REV_AT_EPOCH":5491,"BSTAR":0.00071764727,"MEAN_MOTION_DOT":0.00021339,"MEAN_MOTION_DDOT":0}]
